GALAXY 31 (G-31)        
1 54243U 22153A   26094.22360667  .00000013  00000+0  00000+0 0  9996
2 54243   0.0084 221.5941 0001522 163.6812 126.7579  1.00272034  6397
GALAXY 32 (G-32)        
1 54244U 22153B   26094.23466032 -.00000175  00000+0  00000+0 0  9991
2 54244   0.0111 169.0684 0003056 206.5964 170.3594  1.00271821 12402
GALAXY 35 (G-35)        
1 54741U 22170A   26094.23769375 -.00000163  00000+0  00000+0 0  9995
2 54741   0.0094 213.8999 0002123 168.9067 162.2109  1.00272521 12152
GALAXY 36 (G-36)        
1 54742U 22170B   26094.22993336 -.00000186  00000+0  00000+0 0  9996
2 54742   0.0213 144.6607 0002594 270.4265 131.2268  1.00271965 12034
GALAXY 37 (G-37)        
1 57493U 23112A   26094.21679855  .00000048  00000+0  00000+0 0  9991
2 57493   0.0185 113.9629 0002084 262.2144 127.3934  1.00271591  9802
