[{"OBJECT_NAME":"GALAXY 31 (G-31)","OBJECT_ID":"2022-153A","EPOCH":"2026-04-04T05:21:59.616288","MEAN_MOTION":1.00272034,"ECCENTRICITY":0.00015225,"INCLINATION":0.0084,"RA_OF_ASC_NODE":221.5941,"ARG_OF_PERICENTER":163.6812,"MEAN_ANOMALY":126.7579,"EPHEMERIS_TYPE":0,"CLASSIFICATION_TYPE":"U","NORAD_CAT_ID":54243,"ELEMENT_SET_NO":999,"REV_AT_EPOCH":639,"BSTAR":0,"MEAN_MOTION_DOT":1.3e-7,"MEAN_MOTION_DDOT":0},{"OBJECT_NAME":"GALAXY 32 (G-32)","OBJECT_ID":"2022-153B","EPOCH":"2026-04-04T05:37:54.651648","MEAN_MOTION":1.00271821,"ECCENTRICITY":0.00030565,"INCLINATION":0.0111,"RA_OF_ASC_NODE":169.0684,"ARG_OF_PERICENTER":206.5964,"MEAN_ANOMALY":170.3594,"EPHEMERIS_TYPE":0,"CLASSIFICATION_TYPE":"U","NORAD_CAT_ID":54244,"ELEMENT_SET_NO":999,"REV_AT_EPOCH":1240,"BSTAR":0,"MEAN_MOTION_DOT":-1.75e-6,"MEAN_MOTION_DDOT":0},{"OBJECT_NAME":"GALAXY 35 (G-35)","OBJECT_ID":"2022-170A","EPOCH":"2026-04-04T05:42:16.740000","MEAN_MOTION":1.00272521,"ECCENTRICITY":0.00021236,"INCLINATION":0.0094,"RA_OF_ASC_NODE":213.8999,"ARG_OF_PERICENTER":168.9067,"MEAN_ANOMALY":162.2109,"EPHEMERIS_TYPE":0,"CLASSIFICATION_TYPE":"U","NORAD_CAT_ID":54741,"ELEMENT_SET_NO":999,"REV_AT_EPOCH":1215,"BSTAR":0,"MEAN_MOTION_DOT":-1.63e-6,"MEAN_MOTION_DDOT":0},{"OBJECT_NAME":"GALAXY 36 (G-36)","OBJECT_ID":"2022-170B","EPOCH":"2026-04-04T05:31:06.242304","MEAN_MOTION":1.00271965,"ECCENTRICITY":0.00025949,"INCLINATION":0.0213,"RA_OF_ASC_NODE":144.6607,"ARG_OF_PERICENTER":270.4265,"MEAN_ANOMALY":131.2268,"EPHEMERIS_TYPE":0,"CLASSIFICATION_TYPE":"U","NORAD_CAT_ID":54742,"ELEMENT_SET_NO":999,"REV_AT_EPOCH":1203,"BSTAR":0,"MEAN_MOTION_DOT":-1.86e-6,"MEAN_MOTION_DDOT":0},{"OBJECT_NAME":"GALAXY 37 (G-37)","OBJECT_ID":"2023-112A","EPOCH":"2026-04-04T05:12:11.394720","MEAN_MOTION":1.00271591,"ECCENTRICITY":0.00020845,"INCLINATION":0.0185,"RA_OF_ASC_NODE":113.9629,"ARG_OF_PERICENTER":262.2144,"MEAN_ANOMALY":127.3934,"EPHEMERIS_TYPE":0,"CLASSIFICATION_TYPE":"U","NORAD_CAT_ID":57493,"ELEMENT_SET_NO":999,"REV_AT_EPOCH":980,"BSTAR":0,"MEAN_MOTION_DOT":4.8e-7,"MEAN_MOTION_DDOT":0}]
